2025-226A               
1 65938U 25226A   25303.86839516  .00014209  00000+0  83243-3 0  9995
2 65938  97.6668  18.0567 0014580 211.9195 148.1153 15.11825120  2997
2025-226B               
1 65939U 25226B   25303.89000407  .00009148  00000+0  56873-3 0  9993
2 65939  97.6626  18.0182 0020753 216.3750 143.6070 15.09690938  2981
2025-226C               
1 65940U 25226C   25303.86985418  .00014254  00000+0  83764-3 0  9999
2 65940  97.6577  18.0333 0014549 209.8299 150.2103 15.11713493  2983
YOTSUBA-KULOVER         
1 65941U 98067XN  25303.23480376  .00065369  00000+0  10296-2 0  9999
2 65941  51.6334 357.5299 0002513 335.1462  24.9407 15.52948261  3084
BOTAN                   
1 65942U 98067XP  25303.23003163  .00087247  00000+0  13309-2 0  9992
2 65942  51.6334 357.4989 0004562 354.4119   5.6819 15.53700317  3081
E-KAGAKU-1              
1 65943U 98067XQ  25302.52650378  .00055943  00000+0  88576-3 0  9997
2 65943  51.6334   1.0497 0004142 339.6599  20.4226 15.52865826  2979
2025-226D               
1 65944U 25226D   25290.94606692 -.00000071  00000+0  00000+0 0  9992
2 65944  97.6632   5.1263 0019022 287.2735  72.6416 15.16526485  1020
SHIYAN-31               
1 65945U 25227A   25303.83767448  .00012359  00000+0  56660-3 0  9992
2 65945  80.0037  78.8781 0011558 211.5956 148.4578 15.20306947  2654
CZ-2D R/B               
1 65946U 25227B   25303.82343248  .00014275  00000+0  52782-3 0  9990
2 65946  80.1539  79.1790 0021439 337.8653  22.1650 15.27383895  2666
KUIPER-00101            
1 65947U 25228A   25303.16449162  .00310053  00000+0  86706-2 0  9996
2 65947  51.8782 230.4939 0006566 212.6303 147.4278 15.34881663  3724
KUIPER-00113            
1 65948U 25228B   25303.81288343  .00050112  00000+0  14552-2 0  9998
2 65948  51.8786 227.3434 0006368 192.1759 167.9074 15.34979974  3826
KUIPER-00117            
1 65949U 25228C   25303.81334179  .00049556  00000+0  14415-2 0  9996
2 65949  51.8787 227.3464 0006118 192.5548 167.5286 15.34934665  3823
